{
  "norad_id": 59369,
  "name": "STARLINK-31583",
  "history": [
    {
      "epoch": "2026-03-28T14:40:02.061408",
      "apogee_km": 483.92132309086173,
      "perigee_km": 482.1154669908874,
      "latitude_deg": 26.51103895631563,
      "longitude_deg": 175.5689571199473,
      "semi_major_axis_km": 6861.155395040874,
      "eccentricity": 0.0001316,
      "inclination_deg": 43.0021,
      "raan_deg": 142.0052,
      "arg_perigee_deg": 256.3111,
      "mean_anomaly_deg": 103.7594,
      "mean_motion_rev_day": 15.27590253
    }
  ]
}