{"fetched_at":"2026-03-30T06:02:59Z","count":15439,"tles":[{"name":"STARLINK-31583","line1":"1 59369U 24060X   26087.61113497 -.00000127  00000+0  49015-5 0  9993","line2":"2 59369  43.0021 142.0052 0001316 256.3111 103.7594 15.27590253113089","category":"Starlink"}]}